ONEWEB-0512             
1 54130U 22138T   24227.87481086  .00000070  00000+0  14333-3 0  9991
2 54130  87.9103  78.5415 0001461  69.8771 290.2519 13.19725240 88269
ONEWEB-0513             
1 54131U 22138U   24227.84557941  .00000091  00000+0  19535-3 0  9995
2 54131  87.9101  78.5403 0001610  64.4315 295.6984 13.19725707 88146
ONEWEB-0514             
1 54132U 22138V   24227.89060478 -.00000007  00000+0 -50129-4 0  9999
2 54132  87.9097  78.5248 0001831  83.5891 276.5450 13.19725043 88288
ONEWEB-0517             
1 54135U 22138Y   24227.84479910  .00000141  00000+0  32019-3 0  9996
2 54135  87.9098  78.5298 0002071  74.6857 285.4505 13.19724626 88283
ONEWEB-0518             
1 54136U 22138Z   24227.86375624  .00000070  00000+0  14201-3 0  9990
2 54136  87.9105  78.5429 0001830  80.5963 279.5377 13.19724948 88283
ONEWEB-0519             
1 54137U 22138AA  24227.88902715  .00000044  00000+0  76788-4 0  9990
2 54137  87.9095  78.5162 0001690  70.1342 289.9972 13.19725740 88294
